ONEWEB-0256             
1 48974U 21060H   23301.03551147 -.00000044  00000+0 -14742-3 0  9996
2 48974  87.9067  60.4820 0001895  97.3342 262.8005 13.16591804114188
ONEWEB-0257             
1 48975U 21060J   23301.37338325 -.00015511  00000+0 -40746-1 0  9991
2 48975  87.9067  60.3865 0002089  78.9195 281.2171 13.16480216114187
ONEWEB-0258             
1 48976U 21060K   23300.76741209 -.00000011  00000+0 -62796-4 0  9994
2 48976  87.9067  60.5360 0001588  99.1552 260.9759 13.16595589112820
ONEWEB-0259             
1 48977U 21060L   23300.76108254  .00000006  00000+0 -18459-4 0  9992
2 48977  87.9067  60.5221 0001318  98.7715 261.3565 13.16595448112851
ONEWEB-0260             
1 48978U 21060M   23301.36271754 -.00000289  00000+0 -78908-3 0  9994
2 48978  87.9070  60.4327 0002404  88.1761 271.9646 13.16594273114194
ONEWEB-0261             
1 48979U 21060N   23300.87296129  .00000195  00000+0  47755-3 0  9993
2 48979  87.9072  60.5221 0001698  78.8975 281.2347 13.16592201112906
ONEWEB-0262             
1 48980U 21060P   23301.38595893  .00000090  00000+0  20082-3 0  9990
2 48980  87.9071  60.3846 0001124  92.5449 267.5811 13.16593042114236
ONEWEB-0263             
1 48981U 21060Q   23301.56960726  .00000069  00000+0  14743-3 0  9995
2 48981  87.9067  60.3629 0001363  82.2058 277.9228 13.16597044114220
